[{"OBJECT_NAME":"STARLINK-32640","OBJECT_ID":"2024-229G","EPOCH":"2026-03-09T13:25:10.363872","MEAN_MOTION":15.27592769,"ECCENTRICITY":8.763e-5,"INCLINATION":42.9959,"RA_OF_ASC_NODE":271.2603,"ARG_OF_PERICENTER":169.5848,"MEAN_ANOMALY":190.5022,"EPHEMERIS_TYPE":0,"CLASSIFICATION_TYPE":"U","NORAD_CAT_ID":62198,"ELEMENT_SET_NO":999,"REV_AT_EPOCH":7054,"BSTAR":0.00094614882,"MEAN_MOTION_DOT":0.00025875,"MEAN_MOTION_DDOT":0},{"OBJECT_NAME":"FLOCK 4G-3","OBJECT_ID":"2025-009AG","EPOCH":"2026-03-09T19:14:30.392160","MEAN_MOTION":15.2717931,"ECCENTRICITY":0.00013196,"INCLINATION":97.4062,"RA_OF_ASC_NODE":151.4068,"ARG_OF_PERICENTER":293.2042,"MEAN_ANOMALY":66.9058,"EPHEMERIS_TYPE":0,"CLASSIFICATION_TYPE":"U","NORAD_CAT_ID":62639,"ELEMENT_SET_NO":999,"REV_AT_EPOCH":6372,"BSTAR":0.0004338875,"MEAN_MOTION_DOT":0.00011494,"MEAN_MOTION_DDOT":0}]
